NORAD_CAT_ID,OBJECT_NAME,OBJECT_TYPE,EPOCH,MEAN_MOTION,ECCENTRICITY,INCLINATION,RA_OF_ASC_NODE,ARG_OF_PERICENTER,MEAN_ANOMALY,BSTAR,MEAN_MOTION_DOT,MEAN_MOTION_DDOT,TLE_LINE0,TLE_LINE1,TLE_LINE2,SEMIMAJOR_AXIS,PERIOD,APOGEE,PERIGEE,DECAYED
52490.0,STARLINK-3914,PAYLOAD,2023-08-13 22:35:08,15.08834076,7.52e-05,53.2165,303.3271,107.4666,252.6408,7.8979e-05,9.69e-06,0.0,0 STARLINK-3914,1 52490U 22049AR  23225.94107174  .00000969  00000-0  78979-4 0  9992,2 52490  53.2165 303.3271 0000752 107.4666 252.6408 15.08834076 70834,6917.898,95.438,540.284,539.243,0.0
52490.0,STARLINK-3914,PAYLOAD,2023-08-14 14:29:00,15.08848641,9.27e-05,53.2165,300.3545,86.8484,273.2615,0.001236,0.00019442,0.0,0 STARLINK-3914,1 52490U 22049AR  23226.60347249  .00019442  00000-0  12360-2 0  9991,2 52490  53.2165 300.3545 0000927  86.8484 273.2615 15.08848641 70930,6917.854,95.437,540.36,539.078,0.0
52490.0,STARLINK-3914,PAYLOAD,2023-08-14 22:25:55,15.08848231,0.0001176,53.2154,298.8692,72.3476,287.7645,0.00068569,0.00010644,0.0,0 STARLINK-3914,1 52490U 22049AR  23226.93467318  .00010644  00000-0  68569-3 0  9995,2 52490  53.2154 298.8692 0001176  72.3476 287.7645 15.08848231 70983,6917.855,95.437,540.534,538.907,0.0
52490.0,STARLINK-3914,PAYLOAD,2023-08-15 09:33:37,15.08848365,0.0001083,53.2162,296.7863,83.0352,277.0763,0.00041835,6.378e-05,0.0,0 STARLINK-3914,1 52490U 22049AR  23227.39835200  .00006378  00000-0  41835-3 0  9991,2 52490  53.2162 296.7863 0001083  83.0352 277.0763 15.08848365 71058,6917.855,95.437,540.469,538.971,0.0
52490.0,STARLINK-3914,PAYLOAD,2023-08-16 10:59:47,15.0884206,0.0001282,53.2172,292.0271,109.0583,251.0548,4.1508e-05,3.73e-06,0.0,0 STARLINK-3914,1 52490U 22049AR  23228.45819170  .00000373  00000-0  41508-4 0  9994,2 52490  53.2172 292.0271 0001282 109.0583 251.0548 15.08842060 71214,6917.874,95.437,540.626,538.852,0.0
52490.0,STARLINK-3914,PAYLOAD,2023-08-17 20:22:54,15.08831019,0.0002387,53.2166,285.7792,82.1815,277.9448,-4.6578e-05,-1.029e-05,0.0,0 STARLINK-3914,1 52490U 22049AR  23229.84924085 -.00001029  00000-0 -46578-4 0  9993,2 52490  53.2166 285.7792 0002387  82.1815 277.9448 15.08831019 71421,6917.908,95.438,541.424,538.122,0.0
52490.0,STARLINK-3914,PAYLOAD,2023-08-18 20:13:40,15.08839991,0.0001262,53.2171,281.3222,92.6933,267.4204,5.9102e-05,6.53e-06,0.0,0 STARLINK-3914,1 52490U 22049AR  23230.84283472  .00000653  00000-0  59102-4 0  9990,2 52490  53.2171 281.3222 0001262  92.6933 267.4204 15.08839991 71572,6917.88,95.438,540.618,538.872,0.0
52490.0,STARLINK-3914,PAYLOAD,2023-08-20 11:58:19,15.08836795,0.0001319,53.2171,273.8886,95.9925,264.1218,6.2857e-05,7.13e-06,0.0,0 STARLINK-3914,1 52490U 22049AR  23232.49883994  .00000713  00000-0  62857-4 0  9996,2 52490  53.2171 273.8886 0001319  95.9925 264.1218 15.08836795 71820,6917.89,95.438,540.668,538.843,0.0
52490.0,STARLINK-3914,PAYLOAD,2023-08-21 10:13:43,15.08846932,0.0001208,53.2158,269.7257,88.8036,271.3095,0.00015288,2.147e-05,0.0,0 STARLINK-3914,1 52490U 22049AR  23233.42619536  .00002147  00000-0  15288-3 0  9997,2 52490  53.2158 269.7257 0001208  88.8036 271.3095 15.08846932 71964,6917.859,95.437,540.56,538.889,0.0
52490.0,STARLINK-3914,PAYLOAD,2023-08-22 11:39:53,15.08843101,0.0001228,53.2153,264.9679,101.1375,258.9755,0.00011405,1.528e-05,0.0,0 STARLINK-3914,1 52490U 22049AR  23234.48603825  .00001528  00000-0  11405-3 0  9997,2 52490  53.2153 264.9679 0001228 101.1375 258.9755 15.08843101 72129,6917.871,95.437,540.585,538.886,0.0
52490.0,STARLINK-3914,PAYLOAD,2023-08-24 12:56:51,15.0883966,0.0001463,53.2172,255.747,104.6727,255.4428,7.9686e-05,9.8e-06,0.0,0 STARLINK-3914,1 52490U 22049AR  23236.53948063  .00000980  00000-0  79686-4 0  9998,2 52490  53.2172 255.7470 0001463 104.6727 255.4428 15.08839660 72277,6917.881,95.438,540.759,538.734,0.0
52490.0,STARLINK-3914,PAYLOAD,2023-08-25 08:01:28,15.08840526,0.000147,53.217,252.1787,104.6653,255.4502,5.9788e-05,6.64e-06,0.0,0 STARLINK-3914,1 52490U 22049AR  23237.33436052  .00000664  00000-0  59788-4 0  9997,2 52490  53.2170 252.1787 0001470 104.6653 255.4502 15.08840526 72550,6917.879,95.438,540.761,538.727,0.0
52490.0,STARLINK-3914,PAYLOAD,2023-08-25 12:47:38,15.08842183,0.0001467,53.2171,251.2863,105.9723,254.1431,7.1783e-05,8.55e-06,0.0,0 STARLINK-3914,1 52490U 22049AR  23237.53307905  .00000855  00000-0  71783-4 0  9994,2 52490  53.2171 251.2863 0001467 105.9723 254.1431 15.08842183 72428,6917.874,95.437,540.754,538.724,0.0
52490.0,STARLINK-3914,PAYLOAD,2023-08-26 01:30:43,15.08835426,0.0001475,53.2174,248.9061,106.3518,253.7636,5.6697e-05,6.14e-06,0.0,0 STARLINK-3914,1 52490U 22049AR  23238.06300476  .00000614  00000-0  56697-4 0  9999,2 52490  53.2174 248.9061 0001475 106.3518 253.7636 15.08835426 72660,6917.894,95.438,540.78,538.739,0.0
52490.0,STARLINK-3914,PAYLOAD,2023-08-26 14:13:48,15.0884162,0.0001306,53.2161,246.5303,90.5455,269.5687,7.8201e-05,9.57e-06,0.0,0 STARLINK-3914,1 52490U 22049AR  23238.59292168  .00000957  00000-0  78201-4 0  9990,2 52490  53.2161 246.5303 0001306  90.5455 269.5687 15.08841620 72581,6917.875,95.437,540.644,538.837,0.0
52490.0,STARLINK-3914,PAYLOAD,2023-08-27 02:56:54,15.08835785,0.0001538,53.2163,244.1506,108.8811,251.2348,-1.7967e-05,-5.74e-06,0.0,0 STARLINK-3914,1 52490U 22049AR  23239.12284940 -.00000574  00000-0 -17967-4 0  9998,2 52490  53.2163 244.1506 0001538 108.8811 251.2348 15.08835785 72822,6917.893,95.438,540.822,538.694,0.0
52490.0,STARLINK-3914,PAYLOAD,2023-08-27 04:32:17,15.08836135,0.0001399,53.2163,243.8534,93.1469,266.9683,3.3871e-06,-2.34e-06,0.0,0 STARLINK-3914,1 52490U 22049AR  23239.18908921 -.00000234  00000-0  33871-5 0  9991,2 52490  53.2163 243.8534 0001399  93.1469 266.9683 15.08836135 72677,6917.892,95.438,540.725,538.789,0.0
52490.0,STARLINK-3914,PAYLOAD,2023-08-27 09:18:26,15.08836266,0.0001473,53.2173,242.9604,96.1944,263.9216,1.0883e-05,-1.15e-06,0.0,0 STARLINK-3914,1 52490U 22049AR  23239.38780893 -.00000115  00000-0  10883-4 0  9994,2 52490  53.2173 242.9604 0001473  96.1944 263.9216 15.08836266 72708,6917.892,95.438,540.776,538.738,0.0
52490.0,STARLINK-3914,PAYLOAD,2023-08-28 09:09:13,15.08840297,0.0001343,53.2165,238.5017,94.1267,265.9879,6.677e-05,7.75e-06,0.0,0 STARLINK-3914,1 52490U 22049AR  23240.38140843  .00000775  00000-0  66770-4 0  9998,2 52490  53.2165 238.5017 0001343  94.1267 265.9879 15.08840297 73011,6917.879,95.438,540.674,538.815,0.0
52490.0,STARLINK-3914,PAYLOAD,2023-08-28 17:06:09,15.08839662,0.0001323,53.2164,237.0151,88.6318,271.4826,4.7554e-05,4.69e-06,0.0,0 STARLINK-3914,1 52490U 22049AR  23240.71260986  .00000469  00000-0  47554-4 0  9995,2 52490  53.2164 237.0151 0001323  88.6318 271.4826 15.08839662 72901,6917.881,95.438,540.662,538.831,0.0
52490.0,STARLINK-3914,PAYLOAD,2023-08-29 09:00:00,15.08844313,0.0001408,53.2167,234.0419,86.503,273.6123,0.00013333,1.835e-05,0.0,0 STARLINK-3914,1 52490U 22049AR  23241.37500671  .00001835  00000-0  13333-3 0  9991,2 52490  53.2167 234.0419 0001408  86.5030 273.6123 15.08844313 73005,6917.867,95.437,540.706,538.758,0.0
52490.0,STARLINK-3914,PAYLOAD,2023-08-29 23:18:29,15.08842455,0.0001412,53.2167,231.3657,86.6494,273.4659,7.7619e-05,9.48e-06,0.0,0 STARLINK-3914,1 52490U 22049AR  23241.97116979  .00000948  00000-0  77619-4 0  9993,2 52490  53.2167 231.3657 0001412  86.6494 273.4659 15.08842455 73253,6917.873,95.437,540.715,538.761,0.0
52490.0,STARLINK-3914,PAYLOAD,2023-08-30 16:47:43,15.08837365,0.0001484,53.217,228.0944,89.1946,270.9216,1.7604e-05,-8e-08,0.0,0 STARLINK-3914,1 52490U 22049AR  23242.69981368 -.00000008  00000-0  17604-4 0  9991,2 52490  53.2170 228.0944 0001484  89.1946 270.9216 15.08837365 73208,6917.888,95.438,540.78,538.727,0.0
52490.0,STARLINK-3914,PAYLOAD,2023-08-31 05:30:48,15.08841899,0.0001309,53.2165,225.7158,90.1998,269.9144,7.4546e-05,8.99e-06,0.0,0 STARLINK-3914,1 52490U 22049AR  23243.22973002  .00000899  00000-0  74546-4 0  9992,2 52490  53.2165 225.7158 0001309  90.1998 269.9144 15.08841899 73449,6917.875,95.437,540.645,538.834,0.0
52490.0,STARLINK-3914,PAYLOAD,2023-08-31 08:41:34,15.08845268,0.0001345,53.217,225.121,90.0227,270.0919,6.1885e-05,6.97e-06,0.0,0 STARLINK-3914,1 52490U 22049AR  23243.36220795  .00000697  00000-0  61885-4 0  9999,2 52490  53.2170 225.1210 0001345  90.0227 270.0919 15.08845268 73304,6917.864,95.437,540.66,538.799,0.0
52490.0,STARLINK-3914,PAYLOAD,2023-09-01 10:07:44,15.0884702,0.0001403,53.2169,220.3631,96.4112,263.7039,9.2941e-05,1.192e-05,0.0,0 STARLINK-3914,1 52490U 22049AR  23244.42204647  .00001192  00000-0  92941-4 0  9993,2 52490  53.2169 220.3631 0001403  96.4112 263.7039 15.08847020 73629,6917.859,95.437,540.695,538.753,0.0
52490.0,STARLINK-3914,PAYLOAD,2023-09-02 05:12:22,15.08839753,0.0001248,53.2164,216.7957,92.6857,267.4278,0.00020488,2.974e-05,0.0,0 STARLINK-3914,1 52490U 22049AR  23245.21692986  .00002974  00000-0  20488-3 0  9993,2 52490  53.2164 216.7957 0001248  92.6857 267.4278 15.08839753 73748,6917.881,95.438,540.609,538.883,0.0
52490.0,STARLINK-3914,PAYLOAD,2023-09-02 09:58:31,15.0884553,0.0001603,53.2146,215.9031,96.5293,263.5881,9.8586e-05,1.282e-05,0.0,0 STARLINK-3914,1 52490U 22049AR  23245.41564761  .00001282  00000-0  98586-4 0  9990,2 52490  53.2146 215.9031 0001603  96.5293 263.5881 15.08845530 73617,6917.863,95.437,540.837,538.62,0.0
52490.0,STARLINK-3914,PAYLOAD,2023-09-02 14:44:42,15.08828609,0.0001976,53.2154,215.0092,88.5714,271.5504,-1.1291e-05,-4.68e-06,0.0,0 STARLINK-3914,1 52490U 22049AR  23245.61438039 -.00000468  00000-0 -11291-4 0  9995,2 52490  53.2154 215.0092 0001976  88.5714 271.5504 15.08828609 73806,6917.915,95.438,541.147,538.413,0.0
52490.0,STARLINK-3914,PAYLOAD,2023-09-03 08:13:55,15.08846142,0.000155,53.2157,211.7388,97.4873,262.6295,0.00014398,2.005e-05,0.0,0 STARLINK-3914,1 52490U 22049AR  23246.34300893  .00002005  00000-0  14398-3 0  9999,2 52490  53.2157 211.7388 0001550  97.4873 262.6295 15.08846142 73915,6917.862,95.437,540.799,538.654,0.0
